TELKOM 4 (MERAH PUTIH)  
1 43587U 18064A   26064.73153659 -.00000350  00000+0  00000+0 0  9990
2 43587   0.0117 142.1793 0001790 242.8062 149.8047  1.00270062 27848
TELSTAR 18V             
1 43611U 18069A   26064.78794816  .00000000  00000+0  00000+0 0  9995
2 43611   0.0206 171.4994 0002046 178.9200 234.7731  1.00267957 27596
AZERSPACE 2 (IS-38)     
1 43632U 18074A   26064.31642096  .00000000  00000+0  00000+0 0  9995
2 43632   0.0249 144.2303 0001446 216.1159 321.7363  1.00271143 27409
HORIZONS-3E             
1 43633U 18074B   26064.72891879 -.00000038  00000+0  00000+0 0  9998
2 43633   0.0208 270.4294 0000557  65.2436 259.1632  1.00271607 27306
BEIDOU-3 G1             
1 43683U 18085A   26064.77689770 -.00000284  00000+0  00000+0 0  9998
2 43683   2.8141 100.3490 0001427  19.8600 103.0000  1.00268249 27024
GSAT-29                 
1 43698U 18089A   26064.66545506  .00000078  00000+0  00000+0 0  9994
2 43698   0.0549 273.1099 0001739  59.5897 125.2713  1.00272412 26743
ES'HAIL 2               
1 43700U 18090A   26064.51699441  .00000137  00000+0  00000+0 0  9998
2 43700   0.0102 207.4790 0002702 172.6625 355.0003  1.00272028 26633
GEO-KOMPSAT-2A          
1 43823U 18100A   26063.26502859  .00000000  00000+0  00000+0 0  9992
2 43823   0.0084  82.1864 0001750 326.5345 336.9688  1.00267019 26573
GSAT-11                 
1 43824U 18100B   26064.66918175 -.00000084  00000+0  00000+0 0  9993
2 43824   0.0828 271.0650 0005124 145.0688  62.1519  1.00271997 26442
GSAT-7A                 
1 43864U 18105A   26064.66692840  .00000020  00000+0  00000+0 0  9999
2 43864   0.0961 277.9039 0001973  58.5814 129.7286  1.00271544 26413
COSMOS 2533             
1 43867U 18107A   26064.73972874 -.00000046  00000+0  00000+0 0  9999
2 43867   0.0176 112.1609 0000486 355.6037  32.0041  1.00274199 26406
TJS-3                   
1 43874U 18110A   26064.73329492 -.00000227  00000+0  00000+0 0  9994
2 43874   2.2781  81.7709 0016970 345.1463  87.7820  1.00349408 26389
ZHONGXING-2D            
1 43920U 19001A   26064.60894815 -.00000344  00000+0  00000+0 0  9998
2 43920   0.0524 298.3320 0001106 359.0329 215.2107  1.00271426 53040
HELLAS-SAT 4 & SGS-1    
1 44034U 19007A   26064.67582256  .00000146  00000+0  00000+0 0  9990
2 44034   0.0672 125.9862 0002874  23.0660 296.6568  1.00272308 26321
GSAT-31                 
1 44035U 19007B   26064.66406840  .00000118  00000+0  00000+0 0  9993
2 44035   0.0324 261.4599 0004531  45.3309 143.5182  1.00271237 25925
NUSANTARA SATU          
1 44048U 19009A   26063.52197821 -.00000246  00000+0  00000+0 0  9992
2 44048   0.0283 131.5344 0001530 315.9846  48.6457  1.00271077 25726
ZHONGXING-6C            
1 44067U 19012A   26064.60903481 -.00000343  00000+0  00000+0 0  9992
2 44067   0.0463  60.8817 0008739 329.4786 122.6333  1.00270008 25704
