[{"OBJECT_NAME":"TELKOM 4 (MERAH PUTIH)","OBJECT_ID":"2018-064A","EPOCH":"2026-03-05T17:33:24.761376","MEAN_MOTION":1.00270062,"ECCENTRICITY":0.000179,"INCLINATION":0.0117,"RA_OF_ASC_NODE":142.1793,"ARG_OF_PERICENTER":242.8062,"MEAN_ANOMALY":149.8047,"EPHEMERIS_TYPE":0,"CLASSIFICATION_TYPE":"U","NORAD_CAT_ID":43587,"ELEMENT_SET_NO":999,"REV_AT_EPOCH":2784,"BSTAR":0,"MEAN_MOTION_DOT":-3.5e-6,"MEAN_MOTION_DDOT":0},{"OBJECT_NAME":"TELSTAR 18V","OBJECT_ID":"2018-069A","EPOCH":"2026-03-05T18:54:38.721024","MEAN_MOTION":1.00267957,"ECCENTRICITY":0.0002046,"INCLINATION":0.0206,"RA_OF_ASC_NODE":171.4994,"ARG_OF_PERICENTER":178.92,"MEAN_ANOMALY":234.7731,"EPHEMERIS_TYPE":0,"CLASSIFICATION_TYPE":"U","NORAD_CAT_ID":43611,"ELEMENT_SET_NO":999,"REV_AT_EPOCH":2759,"BSTAR":0,"MEAN_MOTION_DOT":0,"MEAN_MOTION_DDOT":0},{"OBJECT_NAME":"AZERSPACE 2 (IS-38)","OBJECT_ID":"2018-074A","EPOCH":"2026-03-05T07:35:38.770944","MEAN_MOTION":1.00271143,"ECCENTRICITY":0.0001446,"INCLINATION":0.0249,"RA_OF_ASC_NODE":144.2303,"ARG_OF_PERICENTER":216.1159,"MEAN_ANOMALY":321.7363,"EPHEMERIS_TYPE":0,"CLASSIFICATION_TYPE":"U","NORAD_CAT_ID":43632,"ELEMENT_SET_NO":999,"REV_AT_EPOCH":2740,"BSTAR":0,"MEAN_MOTION_DOT":0,"MEAN_MOTION_DDOT":0},{"OBJECT_NAME":"HORIZONS-3E","OBJECT_ID":"2018-074B","EPOCH":"2026-03-05T17:29:38.583456","MEAN_MOTION":1.00271607,"ECCENTRICITY":5.57e-5,"INCLINATION":0.0208,"RA_OF_ASC_NODE":270.4294,"ARG_OF_PERICENTER":65.2436,"MEAN_ANOMALY":259.1632,"EPHEMERIS_TYPE":0,"CLASSIFICATION_TYPE":"U","NORAD_CAT_ID":43633,"ELEMENT_SET_NO":999,"REV_AT_EPOCH":2730,"BSTAR":0,"MEAN_MOTION_DOT":-3.8e-7,"MEAN_MOTION_DDOT":0},{"OBJECT_NAME":"BEIDOU-3 G1","OBJECT_ID":"2018-085A","EPOCH":"2026-03-05T18:38:43.961280","MEAN_MOTION":1.00268249,"ECCENTRICITY":0.0001427,"INCLINATION":2.8141,"RA_OF_ASC_NODE":100.349,"ARG_OF_PERICENTER":19.86,"MEAN_ANOMALY":103,"EPHEMERIS_TYPE":0,"CLASSIFICATION_TYPE":"U","NORAD_CAT_ID":43683,"ELEMENT_SET_NO":999,"REV_AT_EPOCH":2702,"BSTAR":0,"MEAN_MOTION_DOT":-2.84e-6,"MEAN_MOTION_DDOT":0},{"OBJECT_NAME":"GSAT-29","OBJECT_ID":"2018-089A","EPOCH":"2026-03-05T15:58:15.317184","MEAN_MOTION":1.00272412,"ECCENTRICITY":0.0001739,"INCLINATION":0.0549,"RA_OF_ASC_NODE":273.1099,"ARG_OF_PERICENTER":59.5897,"MEAN_ANOMALY":125.2713,"EPHEMERIS_TYPE":0,"CLASSIFICATION_TYPE":"U","NORAD_CAT_ID":43698,"ELEMENT_SET_NO":999,"REV_AT_EPOCH":2674,"BSTAR":0,"MEAN_MOTION_DOT":7.8e-7,"MEAN_MOTION_DDOT":0},{"OBJECT_NAME":"ES'HAIL 2","OBJECT_ID":"2018-090A","EPOCH":"2026-03-05T12:24:28.317024","MEAN_MOTION":1.00272028,"ECCENTRICITY":0.0002702,"INCLINATION":0.0102,"RA_OF_ASC_NODE":207.479,"ARG_OF_PERICENTER":172.6625,"MEAN_ANOMALY":355.0003,"EPHEMERIS_TYPE":0,"CLASSIFICATION_TYPE":"U","NORAD_CAT_ID":43700,"ELEMENT_SET_NO":999,"REV_AT_EPOCH":2663,"BSTAR":0,"MEAN_MOTION_DOT":1.37e-6,"MEAN_MOTION_DDOT":0},{"OBJECT_NAME":"GEO-KOMPSAT-2A","OBJECT_ID":"2018-100A","EPOCH":"2026-03-04T06:21:38.470176","MEAN_MOTION":1.00267019,"ECCENTRICITY":0.00017508,"INCLINATION":0.0084,"RA_OF_ASC_NODE":82.1864,"ARG_OF_PERICENTER":326.5345,"MEAN_ANOMALY":336.9688,"EPHEMERIS_TYPE":0,"CLASSIFICATION_TYPE":"U","NORAD_CAT_ID":43823,"ELEMENT_SET_NO":999,"REV_AT_EPOCH":2657,"BSTAR":0,"MEAN_MOTION_DOT":0,"MEAN_MOTION_DDOT":0},{"OBJECT_NAME":"GSAT-11","OBJECT_ID":"2018-100B","EPOCH":"2026-03-05T16:03:37.303200","MEAN_MOTION":1.00271997,"ECCENTRICITY":0.0005124,"INCLINATION":0.0828,"RA_OF_ASC_NODE":271.065,"ARG_OF_PERICENTER":145.0688,"MEAN_ANOMALY":62.1519,"EPHEMERIS_TYPE":0,"CLASSIFICATION_TYPE":"U","NORAD_CAT_ID":43824,"ELEMENT_SET_NO":999,"REV_AT_EPOCH":2644,"BSTAR":0,"MEAN_MOTION_DOT":-8.4e-7,"MEAN_MOTION_DDOT":0},{"OBJECT_NAME":"GSAT-7A","OBJECT_ID":"2018-105A","EPOCH":"2026-03-05T16:00:22.613760","MEAN_MOTION":1.00271544,"ECCENTRICITY":0.0001973,"INCLINATION":0.0961,"RA_OF_ASC_NODE":277.9039,"ARG_OF_PERICENTER":58.5814,"MEAN_ANOMALY":129.7286,"EPHEMERIS_TYPE":0,"CLASSIFICATION_TYPE":"U","NORAD_CAT_ID":43864,"ELEMENT_SET_NO":999,"REV_AT_EPOCH":2641,"BSTAR":0,"MEAN_MOTION_DOT":2.0e-7,"MEAN_MOTION_DDOT":0},{"OBJECT_NAME":"COSMOS 2533","OBJECT_ID":"2018-107A","EPOCH":"2026-03-05T17:45:12.563136","MEAN_MOTION":1.00274199,"ECCENTRICITY":4.86e-5,"INCLINATION":0.0176,"RA_OF_ASC_NODE":112.1609,"ARG_OF_PERICENTER":355.6037,"MEAN_ANOMALY":32.0041,"EPHEMERIS_TYPE":0,"CLASSIFICATION_TYPE":"U","NORAD_CAT_ID":43867,"ELEMENT_SET_NO":999,"REV_AT_EPOCH":2640,"BSTAR":0,"MEAN_MOTION_DOT":-4.6e-7,"MEAN_MOTION_DDOT":0},{"OBJECT_NAME":"TJS-3","OBJECT_ID":"2018-110A","EPOCH":"2026-03-05T17:35:56.681088","MEAN_MOTION":1.00349408,"ECCENTRICITY":0.001697,"INCLINATION":2.2781,"RA_OF_ASC_NODE":81.7709,"ARG_OF_PERICENTER":345.1463,"MEAN_ANOMALY":87.782,"EPHEMERIS_TYPE":0,"CLASSIFICATION_TYPE":"U","NORAD_CAT_ID":43874,"ELEMENT_SET_NO":999,"REV_AT_EPOCH":2638,"BSTAR":0,"MEAN_MOTION_DOT":-2.27e-6,"MEAN_MOTION_DDOT":0},{"OBJECT_NAME":"ZHONGXING-2D","OBJECT_ID":"2019-001A","EPOCH":"2026-03-05T14:36:53.120160","MEAN_MOTION":1.00271426,"ECCENTRICITY":0.0001106,"INCLINATION":0.0524,"RA_OF_ASC_NODE":298.332,"ARG_OF_PERICENTER":359.0329,"MEAN_ANOMALY":215.2107,"EPHEMERIS_TYPE":0,"CLASSIFICATION_TYPE":"U","NORAD_CAT_ID":43920,"ELEMENT_SET_NO":999,"REV_AT_EPOCH":5304,"BSTAR":0,"MEAN_MOTION_DOT":-3.44e-6,"MEAN_MOTION_DDOT":0},{"OBJECT_NAME":"HELLAS-SAT 4 & SGS-1","OBJECT_ID":"2019-007A","EPOCH":"2026-03-05T16:13:11.069184","MEAN_MOTION":1.00272308,"ECCENTRICITY":0.0002874,"INCLINATION":0.0672,"RA_OF_ASC_NODE":125.9862,"ARG_OF_PERICENTER":23.066,"MEAN_ANOMALY":296.6568,"EPHEMERIS_TYPE":0,"CLASSIFICATION_TYPE":"U","NORAD_CAT_ID":44034,"ELEMENT_SET_NO":999,"REV_AT_EPOCH":2632,"BSTAR":0,"MEAN_MOTION_DOT":1.46e-6,"MEAN_MOTION_DDOT":0},{"OBJECT_NAME":"GSAT-31","OBJECT_ID":"2019-007B","EPOCH":"2026-03-05T15:56:15.509760","MEAN_MOTION":1.00271237,"ECCENTRICITY":0.0004531,"INCLINATION":0.0324,"RA_OF_ASC_NODE":261.4599,"ARG_OF_PERICENTER":45.3309,"MEAN_ANOMALY":143.5182,"EPHEMERIS_TYPE":0,"CLASSIFICATION_TYPE":"U","NORAD_CAT_ID":44035,"ELEMENT_SET_NO":999,"REV_AT_EPOCH":2592,"BSTAR":0,"MEAN_MOTION_DOT":1.18e-6,"MEAN_MOTION_DDOT":0},{"OBJECT_NAME":"NUSANTARA SATU","OBJECT_ID":"2019-009A","EPOCH":"2026-03-04T12:31:38.917344","MEAN_MOTION":1.00271077,"ECCENTRICITY":0.00015307,"INCLINATION":0.0283,"RA_OF_ASC_NODE":131.5344,"ARG_OF_PERICENTER":315.9846,"MEAN_ANOMALY":48.6457,"EPHEMERIS_TYPE":0,"CLASSIFICATION_TYPE":"U","NORAD_CAT_ID":44048,"ELEMENT_SET_NO":999,"REV_AT_EPOCH":2572,"BSTAR":0,"MEAN_MOTION_DOT":-2.46e-6,"MEAN_MOTION_DDOT":0},{"OBJECT_NAME":"ZHONGXING-6C","OBJECT_ID":"2019-012A","EPOCH":"2026-03-05T14:37:00.607584","MEAN_MOTION":1.00270008,"ECCENTRICITY":0.0008739,"INCLINATION":0.0463,"RA_OF_ASC_NODE":60.8817,"ARG_OF_PERICENTER":329.4786,"MEAN_ANOMALY":122.6333,"EPHEMERIS_TYPE":0,"CLASSIFICATION_TYPE":"U","NORAD_CAT_ID":44067,"ELEMENT_SET_NO":999,"REV_AT_EPOCH":2570,"BSTAR":0,"MEAN_MOTION_DOT":-3.43e-6,"MEAN_MOTION_DDOT":0}]
